[{"OBJECT_NAME":"STARLINK-32160","OBJECT_ID":"2024-131G","EPOCH":"2025-12-29T06:33:51.983712","MEAN_MOTION":15.30196226,"ECCENTRICITY":0.0001162,"INCLINATION":53.1609,"RA_OF_ASC_NODE":19.782,"ARG_OF_PERICENTER":77.3375,"MEAN_ANOMALY":282.7756,"EPHEMERIS_TYPE":0,"CLASSIFICATION_TYPE":"U","NORAD_CAT_ID":60261,"ELEMENT_SET_NO":999,"REV_AT_EPOCH":8098,"BSTAR":-4.1691e-5,"MEAN_MOTION_DOT":-1.593e-5,"MEAN_MOTION_DDOT":0},{"OBJECT_NAME":"STARLINK-32163","OBJECT_ID":"2024-131H","EPOCH":"2025-12-29T18:19:10.994016","MEAN_MOTION":15.30196208,"ECCENTRICITY":0.0001524,"INCLINATION":53.1615,"RA_OF_ASC_NODE":17.1575,"ARG_OF_PERICENTER":79.3953,"MEAN_ANOMALY":280.7219,"EPHEMERIS_TYPE":0,"CLASSIFICATION_TYPE":"U","NORAD_CAT_ID":60262,"ELEMENT_SET_NO":999,"REV_AT_EPOCH":8101,"BSTAR":4.1458e-5,"MEAN_MOTION_DOT":8.69e-6,"MEAN_MOTION_DDOT":0},{"OBJECT_NAME":"STARLINK-32148","OBJECT_ID":"2024-131J","EPOCH":"2025-12-29T10:42:36.252288","MEAN_MOTION":15.30191887,"ECCENTRICITY":0.0001531,"INCLINATION":53.1609,"RA_OF_ASC_NODE":18.7277,"ARG_OF_PERICENTER":84.2868,"MEAN_ANOMALY":275.8307,"EPHEMERIS_TYPE":0,"CLASSIFICATION_TYPE":"U","NORAD_CAT_ID":60263,"ELEMENT_SET_NO":999,"REV_AT_EPOCH":8101,"BSTAR":-1.1499e-5,"MEAN_MOTION_DOT":-7.0e-6,"MEAN_MOTION_DDOT":0},{"OBJECT_NAME":"STARLINK-32121","OBJECT_ID":"2024-131K","EPOCH":"2025-12-29T18:37:25.993056","MEAN_MOTION":15.30178377,"ECCENTRICITY":0.000136,"INCLINATION":53.1615,"RA_OF_ASC_NODE":17.2378,"ARG_OF_PERICENTER":78.4982,"MEAN_ANOMALY":281.6172,"EPHEMERIS_TYPE":0,"CLASSIFICATION_TYPE":"U","NORAD_CAT_ID":60264,"ELEMENT_SET_NO":999,"REV_AT_EPOCH":8106,"BSTAR":-6.6169e-5,"MEAN_MOTION_DOT":-2.317e-5,"MEAN_MOTION_DDOT":0},{"OBJECT_NAME":"STARLINK-32120","OBJECT_ID":"2024-131L","EPOCH":"2025-12-29T17:44:23.826624","MEAN_MOTION":15.30192709,"ECCENTRICITY":0.0001239,"INCLINATION":53.1614,"RA_OF_ASC_NODE":17.7133,"ARG_OF_PERICENTER":84.4892,"MEAN_ANOMALY":275.625,"EPHEMERIS_TYPE":0,"CLASSIFICATION_TYPE":"U","NORAD_CAT_ID":60265,"ELEMENT_SET_NO":999,"REV_AT_EPOCH":8105,"BSTAR":-1.0205e-6,"MEAN_MOTION_DOT":-3.89e-6,"MEAN_MOTION_DDOT":0},{"OBJECT_NAME":"STARLINK-32205","OBJECT_ID":"2024-131M","EPOCH":"2025-12-29T04:49:10.130880","MEAN_MOTION":15.30196323,"ECCENTRICITY":0.00012685,"INCLINATION":53.1603,"RA_OF_ASC_NODE":20.0533,"ARG_OF_PERICENTER":91.7023,"MEAN_ANOMALY":268.4123,"EPHEMERIS_TYPE":0,"CLASSIFICATION_TYPE":"U","NORAD_CAT_ID":60266,"ELEMENT_SET_NO":999,"REV_AT_EPOCH":8092,"BSTAR":5.7606106e-5,"MEAN_MOTION_DOT":1.347e-5,"MEAN_MOTION_DDOT":0},{"OBJECT_NAME":"STARLINK-32158","OBJECT_ID":"2024-131N","EPOCH":"2025-12-29T18:08:32.483328","MEAN_MOTION":15.30195703,"ECCENTRICITY":0.0001378,"INCLINATION":53.1618,"RA_OF_ASC_NODE":17.1055,"ARG_OF_PERICENTER":94.3126,"MEAN_ANOMALY":265.8032,"EPHEMERIS_TYPE":0,"CLASSIFICATION_TYPE":"U","NORAD_CAT_ID":60267,"ELEMENT_SET_NO":999,"REV_AT_EPOCH":8091,"BSTAR":4.2153e-5,"MEAN_MOTION_DOT":8.89e-6,"MEAN_MOTION_DDOT":0},{"OBJECT_NAME":"STARLINK-32167","OBJECT_ID":"2024-131P","EPOCH":"2025-12-29T17:47:15.074016","MEAN_MOTION":15.30230758,"ECCENTRICITY":7.72e-5,"INCLINATION":53.1602,"RA_OF_ASC_NODE":17.0302,"ARG_OF_PERICENTER":101.4793,"MEAN_ANOMALY":258.6295,"EPHEMERIS_TYPE":0,"CLASSIFICATION_TYPE":"U","NORAD_CAT_ID":60268,"ELEMENT_SET_NO":999,"REV_AT_EPOCH":8101,"BSTAR":-4.6106e-5,"MEAN_MOTION_DOT":-1.725e-5,"MEAN_MOTION_DDOT":0},{"OBJECT_NAME":"STARLINK-32144","OBJECT_ID":"2024-131Q","EPOCH":"2025-12-29T18:28:18.259392","MEAN_MOTION":15.30178558,"ECCENTRICITY":0.0001493,"INCLINATION":53.1612,"RA_OF_ASC_NODE":17.1919,"ARG_OF_PERICENTER":97.7892,"MEAN_ANOMALY":262.3278,"EPHEMERIS_TYPE":0,"CLASSIFICATION_TYPE":"U","NORAD_CAT_ID":60269,"ELEMENT_SET_NO":999,"REV_AT_EPOCH":8106,"BSTAR":0.00010849,"MEAN_MOTION_DOT":2.853e-5,"MEAN_MOTION_DDOT":0},{"OBJECT_NAME":"STARLINK-32211","OBJECT_ID":"2024-131R","EPOCH":"2025-12-29T11:18:59.935392","MEAN_MOTION":15.30241785,"ECCENTRICITY":0.0001186,"INCLINATION":53.1608,"RA_OF_ASC_NODE":18.9024,"ARG_OF_PERICENTER":80.311,"MEAN_ANOMALY":279.8025,"EPHEMERIS_TYPE":0,"CLASSIFICATION_TYPE":"U","NORAD_CAT_ID":60270,"ELEMENT_SET_NO":999,"REV_AT_EPOCH":8096,"BSTAR":0.00021072,"MEAN_MOTION_DOT":5.895e-5,"MEAN_MOTION_DDOT":0},{"OBJECT_NAME":"STARLINK-32164","OBJECT_ID":"2024-131S","EPOCH":"2025-12-29T17:41:21.411168","MEAN_MOTION":15.30192383,"ECCENTRICITY":0.0001148,"INCLINATION":53.1604,"RA_OF_ASC_NODE":17.7015,"ARG_OF_PERICENTER":78.2799,"MEAN_ANOMALY":281.8331,"EPHEMERIS_TYPE":0,"CLASSIFICATION_TYPE":"U","NORAD_CAT_ID":60271,"ELEMENT_SET_NO":999,"REV_AT_EPOCH":8090,"BSTAR":7.2687e-6,"MEAN_MOTION_DOT":-1.44e-6,"MEAN_MOTION_DDOT":0},{"OBJECT_NAME":"STARLINK-32128","OBJECT_ID":"2024-131T","EPOCH":"2025-12-29T18:03:59.653728","MEAN_MOTION":15.30184173,"ECCENTRICITY":8.22e-5,"INCLINATION":53.1602,"RA_OF_ASC_NODE":17.0934,"ARG_OF_PERICENTER":114.8103,"MEAN_ANOMALY":245.2984,"EPHEMERIS_TYPE":0,"CLASSIFICATION_TYPE":"U","NORAD_CAT_ID":60272,"ELEMENT_SET_NO":999,"REV_AT_EPOCH":8101,"BSTAR":-4.0338e-5,"MEAN_MOTION_DOT":-1.553e-5,"MEAN_MOTION_DDOT":0},{"OBJECT_NAME":"STARLINK-32206","OBJECT_ID":"2024-131U","EPOCH":"2025-12-29T08:01:50.023200","MEAN_MOTION":15.30208704,"ECCENTRICITY":0.00013118,"INCLINATION":53.1615,"RA_OF_ASC_NODE":19.4711,"ARG_OF_PERICENTER":95.3434,"MEAN_ANOMALY":264.7717,"EPHEMERIS_TYPE":0,"CLASSIFICATION_TYPE":"U","NORAD_CAT_ID":60273,"ELEMENT_SET_NO":999,"REV_AT_EPOCH":8094,"BSTAR":-8.1346112e-5,"MEAN_MOTION_DOT":-2.768e-5,"MEAN_MOTION_DDOT":0},{"OBJECT_NAME":"STARLINK-32155","OBJECT_ID":"2024-131V","EPOCH":"2025-12-29T07:52:42.779424","MEAN_MOTION":15.30204204,"ECCENTRICITY":0.00011251,"INCLINATION":53.1616,"RA_OF_ASC_NODE":19.4192,"ARG_OF_PERICENTER":87.553,"MEAN_ANOMALY":272.5599,"EPHEMERIS_TYPE":0,"CLASSIFICATION_TYPE":"U","NORAD_CAT_ID":60274,"ELEMENT_SET_NO":999,"REV_AT_EPOCH":8084,"BSTAR":-5.8168266e-5,"MEAN_MOTION_DOT":-2.082e-5,"MEAN_MOTION_DDOT":0},{"OBJECT_NAME":"STARLINK-32152","OBJECT_ID":"2024-131W","EPOCH":"2025-12-29T17:59:25.547136","MEAN_MOTION":15.30195685,"ECCENTRICITY":0.0001167,"INCLINATION":53.16,"RA_OF_ASC_NODE":17.0685,"ARG_OF_PERICENTER":97.6153,"MEAN_ANOMALY":262.498,"EPHEMERIS_TYPE":0,"CLASSIFICATION_TYPE":"U","NORAD_CAT_ID":60275,"ELEMENT_SET_NO":999,"REV_AT_EPOCH":8091,"BSTAR":-3.8754e-6,"MEAN_MOTION_DOT":-4.74e-6,"MEAN_MOTION_DDOT":0},{"OBJECT_NAME":"STARLINK-32154","OBJECT_ID":"2024-131X","EPOCH":"2025-12-29T17:50:19.359168","MEAN_MOTION":15.30172949,"ECCENTRICITY":0.0001589,"INCLINATION":53.1618,"RA_OF_ASC_NODE":17.0275,"ARG_OF_PERICENTER":60.6913,"MEAN_ANOMALY":299.4247,"EPHEMERIS_TYPE":0,"CLASSIFICATION_TYPE":"U","NORAD_CAT_ID":60276,"ELEMENT_SET_NO":999,"REV_AT_EPOCH":8101,"BSTAR":0.00022652,"MEAN_MOTION_DOT":6.35e-5,"MEAN_MOTION_DDOT":0},{"OBJECT_NAME":"STARLINK-32135","OBJECT_ID":"2024-131Y","EPOCH":"2025-12-29T18:14:37.416192","MEAN_MOTION":15.30189102,"ECCENTRICITY":0.0001184,"INCLINATION":53.1612,"RA_OF_ASC_NODE":17.1277,"ARG_OF_PERICENTER":104.6807,"MEAN_ANOMALY":255.4325,"EPHEMERIS_TYPE":0,"CLASSIFICATION_TYPE":"U","NORAD_CAT_ID":60277,"ELEMENT_SET_NO":999,"REV_AT_EPOCH":8101,"BSTAR":-1.4628e-6,"MEAN_MOTION_DOT":-4.02e-6,"MEAN_MOTION_DDOT":0},{"OBJECT_NAME":"STARLINK-32156","OBJECT_ID":"2024-132A","EPOCH":"2025-12-29T18:00:58.738176","MEAN_MOTION":15.30192107,"ECCENTRICITY":0.0001155,"INCLINATION":53.1614,"RA_OF_ASC_NODE":17.203,"ARG_OF_PERICENTER":96.9561,"MEAN_ANOMALY":263.1571,"EPHEMERIS_TYPE":0,"CLASSIFICATION_TYPE":"U","NORAD_CAT_ID":60278,"ELEMENT_SET_NO":999,"REV_AT_EPOCH":8207,"BSTAR":-4.1464e-7,"MEAN_MOTION_DOT":-3.71e-6,"MEAN_MOTION_DDOT":0},{"OBJECT_NAME":"STARLINK-32010","OBJECT_ID":"2024-132B","EPOCH":"2025-12-29T18:48:05.606208","MEAN_MOTION":15.30187776,"ECCENTRICITY":0.0001243,"INCLINATION":53.1607,"RA_OF_ASC_NODE":17.4126,"ARG_OF_PERICENTER":87.2172,"MEAN_ANOMALY":272.8971,"EPHEMERIS_TYPE":0,"CLASSIFICATION_TYPE":"U","NORAD_CAT_ID":60279,"ELEMENT_SET_NO":999,"REV_AT_EPOCH":8085,"BSTAR":0.00013731,"MEAN_MOTION_DOT":3.708e-5,"MEAN_MOTION_DDOT":0},{"OBJECT_NAME":"STARLINK-32118","OBJECT_ID":"2024-132C","EPOCH":"2025-12-29T17:51:51.409728","MEAN_MOTION":15.30196485,"ECCENTRICITY":0.0001149,"INCLINATION":53.1619,"RA_OF_ASC_NODE":17.1651,"ARG_OF_PERICENTER":93.5258,"MEAN_ANOMALY":266.5874,"EPHEMERIS_TYPE":0,"CLASSIFICATION_TYPE":"U","NORAD_CAT_ID":60280,"ELEMENT_SET_NO":999,"REV_AT_EPOCH":8085,"BSTAR":2.7661e-5,"MEAN_MOTION_DOT":4.6e-6,"MEAN_MOTION_DDOT":0},{"OBJECT_NAME":"STARLINK-32038","OBJECT_ID":"2024-132D","EPOCH":"2025-12-29T17:54:53.845056","MEAN_MOTION":15.30195372,"ECCENTRICITY":0.0001237,"INCLINATION":53.1598,"RA_OF_ASC_NODE":17.1779,"ARG_OF_PERICENTER":96.3631,"MEAN_ANOMALY":263.751,"EPHEMERIS_TYPE":0,"CLASSIFICATION_TYPE":"U","NORAD_CAT_ID":60281,"ELEMENT_SET_NO":999,"REV_AT_EPOCH":8085,"BSTAR":9.1285e-6,"MEAN_MOTION_DOT":-8.9e-7,"MEAN_MOTION_DDOT":0},{"OBJECT_NAME":"STARLINK-32113","OBJECT_ID":"2024-132E","EPOCH":"2025-12-29T17:56:25.060992","MEAN_MOTION":15.30196139,"ECCENTRICITY":0.0001287,"INCLINATION":53.1606,"RA_OF_ASC_NODE":17.1841,"ARG_OF_PERICENTER":89.5514,"MEAN_ANOMALY":270.5634,"EPHEMERIS_TYPE":0,"CLASSIFICATION_TYPE":"U","NORAD_CAT_ID":60282,"ELEMENT_SET_NO":999,"REV_AT_EPOCH":8085,"BSTAR":2.3762e-6,"MEAN_MOTION_DOT":-2.89e-6,"MEAN_MOTION_DDOT":0},{"OBJECT_NAME":"STARLINK-32037","OBJECT_ID":"2024-132F","EPOCH":"2025-12-29T18:25:17.429376","MEAN_MOTION":15.3018965,"ECCENTRICITY":0.0001146,"INCLINATION":53.1614,"RA_OF_ASC_NODE":17.3085,"ARG_OF_PERICENTER":103.0254,"MEAN_ANOMALY":257.0875,"EPHEMERIS_TYPE":0,"CLASSIFICATION_TYPE":"U","NORAD_CAT_ID":60283,"ELEMENT_SET_NO":999,"REV_AT_EPOCH":8085,"BSTAR":-1.6171e-6,"MEAN_MOTION_DOT":-4.07e-6,"MEAN_MOTION_DDOT":0}]
